#cP2021  9  5  0  0  0.00000000      96 ORBIT IGb14 HLM  IGS
## 2174      0.00000000   900.00000000 59462 0.0000000000000
+   31   G01G02G03G04G05G06G07G08G09G10G12G13G14G15G16G17G18
+        G19G20G21G22G23G24G25G26G27G28G29G30G31G32  0  0  0
+          0  0  0  0  0  0  0  0  0  0  0  0  0  0  0  0  0
+          0  0  0  0  0  0  0  0  0  0  0  0  0  0  0  0  0
+          0  0  0  0  0  0  0  0  0  0  0  0  0  0  0  0  0
++         1  1  1  3  1  1  1  2  2  1  1  1  1  2  2  2  2
++         2  1  2  1  2  1  1  1  2  2  2  1  2  2  0  0  0
++         0  0  0  0  0  0  0  0  0  0  0  0  0  0  0  0  0
++         0  0  0  0  0  0  0  0  0  0  0  0  0  0  0  0  0
++         0  0  0  0  0  0  0  0  0  0  0  0  0  0  0  0  0
%c G  cc GPS ccc cccc cccc cccc cccc ccccc ccccc ccccc ccccc
%c cc cc ccc ccc cccc cccc cccc cccc ccccc ccccc ccccc ccccc
%f  1.2500000  1.025000000  0.00000000000  0.000000000000000
%f  0.0000000  0.000000000  0.00000000000  0.000000000000000
%i    0    0    0    0      0      0      0      0         0
%i    0    0    0    0      0      0      0      0         0
/* FINAL ORBIT COMBINATION FROM WEIGHTED AVERAGE OF:        
/* cod emr esa gfz grg jpl mit ngs sio                      
/* REFERENCED TO IGS TIME (IGST) AND TO WEIGHTED MEAN POLE: 
/* PCV:IGS14_2163 OL/AL:FES2004  NONE     Y  ORB:CMB CLK:CMB
*  2021  9  5 10 30  0.00000000
PG01  14222.595926  -3085.030027  21943.721667    576.668719  3  5  3  66       
PG02 -13871.558171 -19551.379896 -10700.446485   -630.569040  5  4  4  72       
PG03  21861.000379  -9935.496457  11133.009780   -278.709474  2  3  3  78       
PG04  23422.867373  -1197.185355 -12524.798589   -204.288570  6  7  8  55       
PG05 -18001.630973  -1558.674813 -19684.171802    -53.405606  3  3  2  59       
PG06  -6095.929528 -25816.142540   -305.383564     68.647284  4  4  4  82       
PG07   8034.167786 -18511.219299 -16641.493735    239.284032  3  3  2  88       
PG08  25967.873632   6030.714444   1948.147300    -35.319948  8  3  2  63       
PG09  14736.992901 -10259.883435 -19645.926270   -360.409281  6  4  6  77       
PG10  -7267.996568  20730.560965  14841.467554   -196.949611  7  2  4  69       
PG12 -22397.454337   8069.198754  11386.968535    -92.984614  4  4  2  96       
PG13 -22611.436326 -13502.963346  -4159.207230    181.175480  3  4     78       
PG14   7921.837640 -20541.078786  14818.435581      8.050056  3  3  3  75       
PG15 -26442.002589  -3401.725193   1780.129710   -123.315856  6  6  4  74       
PG16  14309.230957   7411.885157 -21439.377138   -385.465002  8     2  59       
PG17    768.244925 -15433.436265  22033.772889    500.129995  2  4  5  74       
PG18  -6742.705322  20332.525093 -15656.658622    325.728418  4  6  4  83       
PG19  -9173.422445 -17027.604620  18000.768312     48.918615  2  4  5  85       
PG20 -10010.346379 -12424.235880 -21285.702612    519.294187  4  2  3  66       
PG21  16884.299428   5464.267427  20608.485140    141.097820  4  4  4  55       
PG22  20019.402037  -3756.139486  17114.990582   -520.779429  3  2  1  66       
PG23 -16307.349359  20415.998925   4529.890058     61.487744  4  2  5  84       
PG24 -16430.860962  -1623.555087  20611.744480    227.346474  1  3  3  69       
PG25 -20310.838193  16661.242411   2469.916504    203.156003  5  3  3  89       
PG26   4368.140186  16645.346464 -20219.428591    130.754948  5  1  4  88       
PG27  22386.332764  12441.712748  -7902.206960   -188.561444  7  6  2  63       
PG28   2228.619246 -18541.350917  19509.460580    506.891777  5  3  4  92       
PG29 -17469.930500   6715.335092 -18915.980555   -407.045054  4  5  3  83       
PG30    234.696802 -25390.200957  -7293.989062   -469.713390  4  2  3  93       
PG31   7064.735970  25208.516210  -2639.483657   -138.116609  6  2  1  81       
PG32   3797.153026  16347.933919  20739.763297      2.169910  7  6  6  46       
*  2021  9  5 10 45  0.00000000
PG01  14851.116657   -610.634596  21766.542580    576.658701  2  5  2  56       
PG02 -14025.116971 -20729.756379  -8121.535212   -630.571046  4  4  4  87       
PG03  20988.555892  -8789.494264  13510.215002   -278.721263  2  3  3  88       
PG04  24595.502542   -613.848493 -10088.212716   -204.288703  7  7  8  71       
PG05 -16514.109412  -3285.209149 -20741.604202    -53.406848  3  3  3  69       
PG06  -5879.485488 -25744.199510   2596.708058     68.653573  4  5  4  88       
PG07   8744.986601 -16542.113587 -18286.433374    239.290792  3  3  2  87       
PG08  25974.518849   6253.599164   -900.381633    -35.321899  8  3     81       
PG09  16797.814797  -9606.829994 -18271.484100   -360.409966  6  4  7  70       
PG10  -8507.292845  21697.607935  12589.352198   -196.956619  7  1  4  66       
PG12 -21407.123635   6955.922845  13743.851931    -92.989537  4  4  2  77       
PG13 -21962.305226 -13461.108781  -6928.867365    181.180028  4  4  2  74       
PG14   9226.973811 -21444.438518  12615.873942      8.042568  3  3  2  73       
PG15 -26480.704624  -3727.303936   -992.536668   -123.313333  6  6  4  49       
PG16  12458.542221   8973.253834 -21957.525718   -385.470529  8  1  2  68       
PG17   3087.247703 -14671.974669  22355.783151    500.135458  1  4  4  90       
PG18  -7342.418873  18525.028658 -17527.748493    325.724811  4  6  3  86       
PG19  -7097.516702 -16331.103440  19486.122461     48.922742  1  3  5  81       
PG20  -8536.850187 -14323.070660 -20750.434800    519.293801  4  2  3  62       
PG21  17518.825293   7510.416462  19403.202117    141.099081  4  3  4  68       
PG22  18877.951787  -2067.210720  18664.046125   -520.771399  3  2  1  74       
PG23 -16733.156030  20506.199669   1690.544558     61.483288  4  3  5  84       
PG24 -17120.428218  -3886.426979  19777.566549    227.354894     3  3  85       
PG25 -20170.740829  16126.764801   5292.429315    203.161724  5  2  3  82       
PG26   2747.286563  18214.948456 -19092.679132    130.758701  5  1  4  97       
PG27  21360.164816  12335.218486 -10504.189391   -188.566285  6  6     90       
PG28   3861.853246 -19758.658510  17971.260047    506.885798  5  2  4  77       
PG29 -19373.030806   5935.635594 -17251.547046   -407.050446  4  5  3  76       
PG30    776.193178 -24491.127593  -9874.456960   -469.716950  5  3  3  81       
PG31   6796.619002  25406.193263    229.003962   -138.118435  7  3  1  95       
PG32   1474.076349  15795.465294  21439.415735      2.166987  7  5  6  79       
*  2021  9  5 11  0  0.00000000
PG01  15601.585965   1781.298343  21206.147941    576.648695  2  5  1  34       
PG02 -14125.967091 -21613.282229  -5398.825212   -630.572761  2  4  4  91       
PG03  20007.003646  -7406.337162  15652.351374   -278.733057  2  3  3  54       
PG04  25519.744269   -160.422817  -7478.600946   -204.288805  8  7  8  47       
PG05 -15055.007927  -5163.916369 -21448.308137    -53.408029  4  4  3  71       
PG06  -5557.622085 -25373.450654   5453.981151     68.659833  4  5  4  81       
PG07   9602.793997 -14449.111724 -19602.204354    239.297625  3  3  1  67       
PG08  25679.213990   6416.650244  -3733.707522    -35.323793  8  3     78       
PG09  18719.971185  -9092.363179 -16584.522212   -360.410676  7  5  7  82       
PG10  -9517.198927  22528.918056  10118.836036   -196.963653  6  2  3  78       
PG12 -20293.648969   5611.896604  15859.141031    -92.994381  4  4  1  89       
PG13 -21024.159484 -13352.499592  -9580.812397    181.184775  3  3  3  81       
PG14  10301.645205 -22225.941896  10195.602143      8.035079  4  3     68       
PG15 -26227.771570  -4020.217713  -3748.534489   -123.311023  6  5  4  73       
PG16  10665.991325  10662.048763 -22107.594741   -385.476294  8  1  2  74       
PG17   5460.076438 -14039.159073  22308.225515    500.140174  2  4  4  85       
PG18  -8094.457127  16566.118336 -19096.490437    325.721176  3  6  4  66       
PG19  -4840.554769 -15703.023124  20629.908138     48.927398     3  5  74       
PG20  -7203.640038 -16222.893108 -19860.492889    519.294035  4  2  4  48       
PG21  18205.090130   9381.560886  17886.959899    141.101340  3  4  5  79       
PG22  17728.542676   -201.240364  19894.346372   -520.762632  2  2  1  70       
PG23 -16944.237408  20371.525871  -1178.030202     61.478820  5  2  5  79       
PG24 -17872.716253  -6003.465532  18598.620429    227.363244     3  4  75       
PG25 -19848.301006  15347.063162   8021.761783    203.167473  5  2  3  52       
PG26   1294.828074  19750.010837 -17636.291156    130.762554  5  1  4  91       
PG27  20053.953053  12228.391799 -12930.374139   -188.571190  6  6     92       
PG28   5290.750946 -20937.641784  16138.211138    506.878871  5  2  4  75       
PG29 -21119.336727   5319.640793 -15291.942836   -407.055842  4  4  3  77       
PG30   1441.664178 -23347.889780 -12282.232879   -469.720558  4  3  3  70       
PG31   6443.347677  25303.119594   3093.423809   -138.120328  7  4  1  74       
PG32   -933.112893  15353.076045  21774.712591      2.164111  7  4  6  63       
EOF
